0 FENGYUN 1C DEB
1 31640U 99025CAW 13285.74121888  .00007416  00000-0  78921-3 0  4529
2 31640 099.2084 206.0881 0281306 073.9531 289.4970 14.64388945342494
0 FENGYUN 1C DEB
1 31640U 99025CAW 13286.24754797  .00009728  00000-0  10327-2 0  4530
2 31640 099.2086 206.6564 0281076 072.4549 078.7404 14.64408524342573
0 FENGYUN 1C DEB
1 31640U 99025CAW 13287.27181721  .00011148  00000-0  11820-2 0  4544
2 31640 099.2086 207.8031 0280961 069.3542 078.5699 14.64426993342726
0 FENGYUN 1C DEB
1 31640U 99025CAW 13291.01326625  .00015336  00000-0  16195-2 0  4559
2 31640 099.2085 211.9904 0280654 057.9916 003.9296 14.64531201343261
0 FENGYUN 1C DEB
1 31640U 99025CAW 13293.74025451  .00017203  00000-0  18129-2 0  4569
2 31640 099.2097 215.0434 0280468 049.6903 341.8453 14.64605929343666
